#aV2008  5  7  0  0   .00000000      96 DD+AD WGS84 FIT  NGA
## 1478 259200.00000000   900.00000000 54593  .0000000000000
+   31     2  3  4  5  6  7  8  9 10 11 12 13 14 15 16 17 18
+         19 20 21 22 23 24 25 26 27 28 29 30 31 32  0  0  0
+          0  0  0  0  0  0  0  0  0  0  0  0  0  0  0  0  0
+          0  0  0  0  0  0  0  0  0  0  0  0  0  0  0  0  0
+          0  0  0  0  0  0  0  0  0  0  0  0  0  0  0  0  0
++         0  0  0  0  0  0  0  0  0  0  0  0  0  0  0  0  0
++         0  0  0  0  0  0  0  0  0  0  0  0  0  0  0  0  0
++         0  0  0  0  0  0  0  0  0  0  0  0  0  0  0  0  0
++         0  0  0  0  0  0  0  0  0  0  0  0  0  0  0  0  0
++         0  0  0  0  0  0  0  0  0  0  0  0  0  0  0  0  0
%c cc cc ccc ccc cccc cccc cccc cccc ccccc ccccc ccccc ccccc
%c cc cc ccc ccc cccc cccc cccc cccc ccccc ccccc ccccc ccccc
%f  0.0000000  0.000000000  0.00000000000  0.000000000000000
%f  0.0000000  0.000000000  0.00000000000  0.000000000000000
%i    0    0    0    0      0      0      0      0         0
%i    0    0    0    0      0      0      0      0         0
/*      NGA, ST. LOUIS,MO.                                  
/*   EPHEMERIS COMPUTED FROM  3 DAYS OF DATA                
/* CCCCCCCCCCCCCCCCCCCCCCCCCCCCCCCCCCCCCCCCCCCCCCCCCCCCCCCCC
/* CCCCCCCCCCCCCCCCCCCCCCCCCCCCCCCCCCCCCCCCCCCCCCCCCCCCCCCCC
*  2008  5  7 22 45   .00000000                                                 
P  2   2185.931677  17270.109950  19988.692721    200.542388                    
V  2 -23478.496944 -10525.202222  11218.220850       .046231                    
P  3   2993.732796 -19608.365173 -17753.945327    224.984791                    
V  3  18787.003174 -12230.543656  17271.634259       .052739                    
P  4 -10863.075004  11659.810843  21189.714801    -62.355874                    
V  4 -23888.716587 -12915.521255  -4757.932001      -.083532                    
P  5  14910.496426  12541.647627  17845.115998    767.136879                    
V  5   1458.710255  23235.826386 -17146.588040       .086927                    
P  6  15102.869011 -19510.666495  -9726.705349    121.467353                    
V  6  12213.719076  -4610.956063  27674.525977       .097581                    
P  7 -24564.074717  -6205.011908  -8111.808665    -48.965458                    
V  7  -7978.690259  -6901.171255  29468.899381       .098693                    
P  8 -19116.217148   3134.800415 -18464.698982   -152.036199                    
V  8 -19504.258105 -12306.277899  17730.557992      -.015544                    
P  9  20777.833744  15243.561870  -7397.466799    123.453073                    
V  9  -8599.209800  -1685.902652 -30046.645285       .016793                    
P 10   1015.119331  26357.857569   -459.744866     -1.357797                    
V 10  -2995.200107    504.477683  32032.430872      -.004103                    
P 11 -23782.556303 -11168.430833  -5074.416963     25.796897                    
V 11   7289.643578  -2580.386091 -29039.440061      -.002527                    
P 12  12085.256174  17449.745259  16115.488045   -359.171943                    
V 12   -753.551265  20312.736301 -21460.988351       .000156                    
P 13 -23154.993554   4441.426043  12086.635728    254.242777                    
V 13  12629.309480  -9096.733178  27294.061989       .017929                    
P 14  21328.784372 -15427.970536   3220.773530   -269.247765                    
V 14   4411.193099   -378.231028 -32090.918866       .041412                    
P 15   5912.488725  14295.446247 -21567.904177   -107.784024                    
V 15 -23052.311961  14905.446765   3564.297018      -.054545                    
P 16   2473.573099 -25904.245273   4825.137850    125.965875                    
V 16   2979.798748   5968.890852  31190.213504      -.013332                    
P 17 -21048.342046  15780.430680   3008.185292     39.274864                    
V 17  -4791.887386   -490.289140 -31521.856528      -.001389                    
P 18  15380.522228  -1160.163948 -21436.385241   -180.209729                    
V 18    705.339423  27690.320300  -1338.469547       .037367                    
P 19  -6073.848914 -14038.788936 -21618.237844     29.262021                    
V 19  24335.670703 -13193.305086   1901.660142       .009472                    
P 20 -13250.887920 -15516.528375  16905.001028    114.859638                    
V 20    518.005660 -21805.680708 -19429.165326      -.008155                    
P 21  23574.566804   2428.093267 -12405.022677     64.951708                    
V 21  12734.349834   9786.868068  25131.065715      -.010688                    
P 22  11983.455884 -16541.399812 -16798.536309    210.979459                    
V 22   2315.489783  21666.560884 -19556.328238       .001283                    
P 23 -16404.189140  -5766.157370  20078.143108    352.328973                    
V 23  21006.025839 -14567.673964  12698.298623       .022766                    
P 24  23057.287313  12851.865864   -547.848465     92.154672                    
V 24   -866.932630   3306.835300  31766.054679       .028268                    
P 25 -24663.077673  -9563.774457   -275.507135   -135.178291                    
V 25    320.870315  -2944.591713  31963.810165      -.271360                    
P 26   1837.845887  15464.070677 -21906.536022    248.380878                    
V 26 -23337.090397  12967.762342   7895.749199       .082319                    
P 27 -24444.567578  -3801.103792  -9182.659380    186.792325                    
V 27 -10568.381348  -7194.283259  28872.251785       .026987                    
P 28 -12250.213355  14402.982669 -18130.214914    -18.741594                    
V 28  -2368.009527 -23874.043749 -17335.758320      -.005045                    
P 29  22043.764030  -1421.376628  14848.213761    -43.296482                    
V 29 -14763.562468  11597.803385  23243.537477       .002448                    
P 30  15396.165690   5108.648281  20712.211565     75.396568                    
V 30   1684.622138  27060.810913  -7700.647381       .017067                    
P 31   8596.679250 -12592.638688  21959.513714    -19.126225                    
V 31  24354.366200  12470.958592  -2297.666311      -.012839                    
P 32  -1528.131708 -26443.718822   3483.856695    281.519230                    
V 32   2453.580461  -3791.066899 -31422.439160       .057176                    
EOF
